{"spkid": "50789743", "covariance": {"elements": [{"title": "eccentricity", "value": ".2119770712095551", "units": null, "name": "e", "sigma": 1.37337129104471e-08, "label": "e"}, {"units": "au", "value": ".6493080324668591", "title": "perihelion distance", "name": "q", "sigma": 1.15593186221482e-08, "label": "q"}, {"title": "time of perihelion passage", "value": "2458772.216359071639", "units": "TDB", "sigma": 2.5034330243696e-05, "name": "tp", "label": "tp"}, {"sigma": 4.8128717757667e-06, "name": "om", "units": "deg", "value": "59.22001063211424", "title": "longitude of the ascending node", "label": "node"}, {"label": "peri", "name": "w", "sigma": 2.06640644594819e-05, "units": "deg", "title": "argument of perihelion", "value": "187.1932371801352"}, {"label": "i", "sigma": 7.73188651175413e-06, "name": "i", "title": "inclination", "value": "5.773905838747058", "units": "deg"}], "data": [["1.886148703065824E-16", "-1.573869315238362E-16", "2.887182174669042E-13", "2.248453512984183E-14", "2.148012274372158E-13", "4.360999520398744E-14"], ["-1.573869315238362E-16", "1.336178470083422E-16", "-2.320711110484206E-13", "-1.780894206572033E-14", "-1.706411756416655E-13", "-3.657177198465002E-14"], ["2.887182174669042E-13", "-2.320711110484206E-13", "6.267176907504301E-10", "2.917823781736874E-11", "5.020940940345233E-10", "5.760848723524849E-11"], ["2.248453512984183E-14", "-1.780894206572033E-14", "2.917823781736874E-11", "2.316373472997168E-11", "1.217540828517339E-12", "2.247556488600113E-11"], ["2.148012274372158E-13", "-1.706411756416655E-13", "5.020940940345233E-10", "1.217540828517339E-12", "4.270035599856232E-10", "2.332334153025734E-11"], ["4.360999520398744E-14", "-3.657177198465002E-14", "5.760848723524849E-11", "2.247556488600113E-11", "2.332334153025734E-11", "5.978206903064551E-11"]], "labels": ["e", "q", "tp", "node", "peri", "i"], "epoch": "2458715.5"}, "elements": [{"label": "e", "value": ".2148430188599238", "title": "eccentricity", "units": null, "sigma": "1.2116E-8", "name": "e"}, {"label": "a", "sigma": "2.1054E-9", "name": "a", "value": ".8222892535828471", "title": "semi-major axis", "units": "au"}, {"units": "au", "title": "perihelion distance", "value": ".6456261479670348", "sigma": "1.1083E-8", "name": "q", "label": "q"}, {"value": "5.69140298349672", "title": "inclination; angle with respect to x-y ecliptic plane", "units": "deg", "name": "i", "sigma": "7.8579E-6", "label": "i"}, {"label": "node", "title": "longitude of the ascending node", "value": "58.73782701234227", "units": "deg", "name": "om", "sigma": "5.3824E-6"}, {"label": "peri", "value": "186.9165320083493", "title": "argument of perihelion", "units": "deg", "name": "w", "sigma": "2.0466E-5"}, {"name": "ma", "sigma": "2.6694E-5", "units": "deg", "title": "mean anomaly", "value": "327.6083630880519", "label": "M"}, {"label": "tp", "title": "time of perihelion passage", "value": "2461225.005622752928", "units": "TDB", "sigma": "2.0157E-5", "name": "tp"}, {"label": "period", "name": "per", "sigma": "1.046E-6", "title": "sidereal orbital period", "value": "272.3549975271483", "units": "d"}, {"sigma": "5.0765E-9", "name": "n", "value": "1.321804274820091", "title": "mean motion", "units": "deg/d", "label": "n"}, {"sigma": "2.5577E-9", "name": "ad", "units": "au", "title": "aphelion distance", "value": ".9989523591986593", "label": "Q"}], "epoch": "2461200.5"}